{"fetched_at":"2026-07-23T17:55:40.654Z","source":"https://celestrak.org/NORAD/elements/gp.php?NAME=LEGION&FORMAT=JSON","constellation":"maxar-legion","records":[{"OBJECT_NAME":"LEGION 1","OBJECT_ID":"2024-081A","EPOCH":"2026-07-23T05:55:52.309344","CLASSIFICATION_TYPE":"U","MEAN_MOTION":15.16882171,"ECCENTRICITY":0.00079874,"INCLINATION":97.5002,"RA_OF_ASC_NODE":281.7219,"ARG_OF_PERICENTER":236.1302,"MEAN_ANOMALY":123.9172,"EPHEMERIS_TYPE":0,"NORAD_CAT_ID":59625,"ELEMENT_SET_NO":999,"REV_AT_EPOCH":12300,"BSTAR":0.00018267901,"MEAN_MOTION_DOT":0.00003532,"MEAN_MOTION_DDOT":0},{"OBJECT_NAME":"LEGION 2","OBJECT_ID":"2024-081B","EPOCH":"2026-07-23T05:04:47.935488","CLASSIFICATION_TYPE":"U","MEAN_MOTION":15.16862777,"ECCENTRICITY":0.00108937,"INCLINATION":97.5003,"RA_OF_ASC_NODE":281.7834,"ARG_OF_PERICENTER":203.1236,"MEAN_ANOMALY":156.9508,"EPHEMERIS_TYPE":0,"NORAD_CAT_ID":59626,"ELEMENT_SET_NO":999,"REV_AT_EPOCH":12300,"BSTAR":0.00018190196,"MEAN_MOTION_DOT":0.00003517,"MEAN_MOTION_DDOT":0},{"OBJECT_NAME":"LEGION 3","OBJECT_ID":"2024-146A","EPOCH":"2026-07-23T05:53:41.573184","CLASSIFICATION_TYPE":"U","MEAN_MOTION":15.1568915,"ECCENTRICITY":0.00073244,"INCLINATION":44.9999,"RA_OF_ASC_NODE":197.236,"ARG_OF_PERICENTER":19.1941,"MEAN_ANOMALY":340.9212,"EPHEMERIS_TYPE":0,"NORAD_CAT_ID":60452,"ELEMENT_SET_NO":999,"REV_AT_EPOCH":10749,"BSTAR":0.0001850136,"MEAN_MOTION_DOT":0.00003321,"MEAN_MOTION_DDOT":0},{"OBJECT_NAME":"LEGION 4","OBJECT_ID":"2024-146B","EPOCH":"2026-07-23T07:27:58.377312","CLASSIFICATION_TYPE":"U","MEAN_MOTION":15.15725313,"ECCENTRICITY":0.00096085,"INCLINATION":45.002,"RA_OF_ASC_NODE":288.7522,"ARG_OF_PERICENTER":163.4204,"MEAN_ANOMALY":196.699,"EPHEMERIS_TYPE":0,"NORAD_CAT_ID":60453,"ELEMENT_SET_NO":999,"REV_AT_EPOCH":10635,"BSTAR":0.00020932872,"MEAN_MOTION_DOT":0.00003798,"MEAN_MOTION_DDOT":0},{"OBJECT_NAME":"LEGION 5","OBJECT_ID":"2025-025A","EPOCH":"2026-07-23T02:43:12.974304","CLASSIFICATION_TYPE":"U","MEAN_MOTION":15.15741192,"ECCENTRICITY":0.00075423,"INCLINATION":45.0013,"RA_OF_ASC_NODE":108.7695,"ARG_OF_PERICENTER":330.2022,"MEAN_ANOMALY":29.8427,"EPHEMERIS_TYPE":0,"NORAD_CAT_ID":62900,"ELEMENT_SET_NO":999,"REV_AT_EPOCH":7994,"BSTAR":0.00019258807,"MEAN_MOTION_DOT":0.00003474,"MEAN_MOTION_DDOT":0},{"OBJECT_NAME":"LEGION 6","OBJECT_ID":"2025-025B","EPOCH":"2026-07-22T21:57:19.650528","CLASSIFICATION_TYPE":"U","MEAN_MOTION":15.15730655,"ECCENTRICITY":0.00104856,"INCLINATION":45.0023,"RA_OF_ASC_NODE":18.9811,"ARG_OF_PERICENTER":315.9324,"MEAN_ANOMALY":44.0718,"EPHEMERIS_TYPE":0,"NORAD_CAT_ID":62901,"ELEMENT_SET_NO":999,"REV_AT_EPOCH":8105,"BSTAR":0.000195309,"MEAN_MOTION_DOT":0.00003527,"MEAN_MOTION_DDOT":0}]}
